[{"OBJECT_NAME":"TRANSPORTER-10 OBJECT AG","OBJECT_ID":"2024-043AG","EPOCH":"2026-03-09T22:12:45.387648","MEAN_MOTION":15.30759727,"ECCENTRICITY":0.00093005,"INCLINATION":97.5471,"RA_OF_ASC_NODE":205.7101,"ARG_OF_PERICENTER":226.5958,"MEAN_ANOMALY":133.4509,"EPHEMERIS_TYPE":0,"CLASSIFICATION_TYPE":"U","NORAD_CAT_ID":59128,"ELEMENT_SET_NO":999,"REV_AT_EPOCH":11192,"BSTAR":0.00032170115,"MEAN_MOTION_DOT":9.498e-5,"MEAN_MOTION_DDOT":0},{"OBJECT_NAME":"STARLINK-32720","OBJECT_ID":"2024-251V","EPOCH":"2026-03-09T22:28:33.459168","MEAN_MOTION":15.30214495,"ECCENTRICITY":0.00011385,"INCLINATION":53.1611,"RA_OF_ASC_NODE":334.3408,"ARG_OF_PERICENTER":72.3298,"MEAN_ANOMALY":287.7827,"EPHEMERIS_TYPE":0,"CLASSIFICATION_TYPE":"U","NORAD_CAT_ID":62451,"ELEMENT_SET_NO":999,"REV_AT_EPOCH":6761,"BSTAR":0.0012254485,"MEAN_MOTION_DOT":0.00036128,"MEAN_MOTION_DDOT":0}]
